FLOCK 3P-47             
1 42032U 17008CN  17280.89898318  .00006563  00000-0  27975-3 0  9992
2 42032  97.4841 341.9733 0008554 167.1494 192.9962 15.23253285 35518
FLOCK 3P-44             
1 42033U 17008CP  17280.89237839  .00005814  00000-0  24813-3 0  9994
2 42033  97.4844 341.9878 0008472 169.8180 190.3230 15.23266654 34267
FLOCK 3P-64             
1 42034U 17008CQ  17280.82593684  .00004295  00000-0  18418-3 0  9997
2 42034  97.4840 341.9114 0008344 169.1236 191.0183 15.23253317 35673
FLOCK 3P-63             
1 42035U 17008CR  17280.89029437  .00004376  00000-0  18742-3 0  9995
2 42035  97.4839 341.9750 0008376 168.9608 191.1814 15.23286943 33652
FLOCK 3P-62             
1 42036U 17008CS  17280.94393203  .00004070  00000-0  17425-3 0  9995
2 42036  97.4841 342.0613 0008386 170.9806 189.1583 15.23342290 34862
FLOCK 3P-38             
1 42037U 17008CT  17280.88867431  .00006113  00000-0  26058-3 0  9990
2 42037  97.4840 341.9781 0008040 169.2464 190.8946 15.23284221 35631
FLOCK 3P-39             
1 42038U 17008CU  17280.88695870  .00002785  00000-0  12043-3 0  9997
2 42038  97.4836 341.9704 0008250 169.6672 190.4736 15.23279212 35581
FLOCK 3P-15             
1 42039U 17008CV  17280.89105914  .00006256  00000-0  26667-3 0  9998
2 42039  97.4838 341.9747 0008179 169.1419 190.9996 15.23276912 34862
FLOCK 3P-13             
1 42040U 17008CW  17280.88580274  .00008086  00000-0  34391-3 0  9991
2 42040  97.4841 341.9867 0008056 170.4934 189.6457 15.23258730 34856
FLOCK 3P-55             
1 42041U 17008CX  17280.86343002  .00006605  00000-0  28128-3 0  9992
2 42041  97.4841 342.0124 0007738 173.6016 186.5321 15.23287909 35696
FLOCK 3P-56             
1 42042U 17008CY  17280.91958595  .00005013  00000-0  21235-3 0  9992
2 42042  97.4837 342.0803 0007750 172.9922 187.1424 15.23594006 35496
FLOCK 3P-81             
1 42043U 17008CZ  17280.71458122  .00005026  00000-0  21498-3 0  9997
2 42043  97.4865 341.8367 0009158 154.9364 205.2319 15.23250583 34846
FLOCK 3P-87             
1 42044U 17008DA  17280.92047787  .00004578  00000-0  19610-3 0  9996
2 42044  97.4860 342.0100 0009400 151.7855 208.3893 15.23247694 35021
FLOCK 3P-29             
1 42045U 17008DB  17281.11913301  .00005532  00000-0  23642-3 0  9994
2 42045  97.4842 342.1466 0009167 148.0280 212.1515 15.23235867 34908
FLOCK 3P-82             
1 42046U 17008DC  17280.85768592  .00005184  00000-0  22144-3 0  9994
2 42046  97.4863 341.9469 0009421 153.0777 207.0950 15.23279184 34919
FLOCK 3P-78             
1 42047U 17008DD  17280.91959515  .00005742  00000-0  24532-3 0  9992
2 42047  97.4863 342.0196 0009338 151.4906 208.6843 15.23227996 34857
FLOCK 3P-74             
1 42048U 17008DE  17280.59987047  .00006237  00000-0  26603-3 0  9999
2 42048  97.4867 341.6885 0009541 153.5793 206.5932 15.23246554 34807
FLOCK 3P-31             
1 42049U 17008DF  17281.12648188  .00005087  00000-0  21775-3 0  9997
2 42049  97.4843 342.1395 0009239 149.2007 210.9774 15.23216973 34342
FLOCK 3P-83             
1 42050U 17008DG  17280.60215629  .00006357  00000-0  27134-3 0  9997
2 42050  97.4863 341.6751 0009428 154.2873 205.8834 15.23216542 35537
FLOCK 3P-72             
1 42051U 17008DH  17281.17315624  .00002295  00000-0  99823-4 0  9999
2 42051  97.4868 342.3054 0009008 151.2964 208.8770 15.23263820 33215
LEMUR-2-REDFERN-GOES    
1 42059U 98067LA  17280.84239505  .00027186  00000-0  30770-3 0  9998
2 42059  51.6376 190.2404 0005971  10.5551 349.5567 15.62199061 33598
LEMUR-2-TRUTNA          
1 42067U 98067LC  17281.13400732  .00060366  00000-0  53025-3 0  9997
2 42067  51.6366 185.4244 0003893  24.6801 335.4381 15.68211040 33517
LEMUR-2-AUSTINTACIOUS   
1 42068U 98067LD  17280.84854307  .00033255  00000-0  35321-3 0  9992
2 42068  51.6382 189.5327 0005126   4.2795 355.8243 15.63725962 33533
LEMUR-2-TRUTNAHD        
1 42069U 98067LE  17280.94473817  .00027972  00000-0  30996-3 0  9999
2 42069  51.6388 189.4395 0005133  11.2611 348.8498 15.62733970 33594
HAVELSAT                
1 42700U 98067LH  17281.14709137  .00027470  00000-0  34334-3 0  9994
2 42700  51.6391 192.2807 0005764  41.5845 318.5586 15.59601312 22540
SOMP 2                  
1 42701U 98067LJ  17281.16355405  .00026359  00000-0  33479-3 0  9996
2 42701  51.6386 192.3934 0005726  41.3274 318.8152 15.59200535 22532
COLUMBIA                
1 42702U 98067LK  17281.11039354  .00073816  00000-0  73792-3 0  9996
2 42702  51.6369 190.5289 0004224  57.1243 303.0158 15.64913429 22485
SGSAT                   
1 42703U 98067LL  17281.11244946  .00054693  00000-0  59576-3 0  9998
2 42703  51.6364 191.2897 0000624  76.9352 283.1712 15.62863710 22461
CXBN-2                  
1 42704U 98067LM  17281.17031927  .00027689  00000-0  35056-3 0  9990
2 42704  51.6390 192.4383 0000892  29.6569 330.4474 15.59270651 22469
ICECUBE                 
1 42705U 98067LN  17281.13815698  .00038014  00000-0  45679-3 0  9998
2 42705  51.6409 192.2350 0001003 355.1372   4.9611 15.60481347 22528
PHOENIX                 
1 42706U 98067LP  17281.15628241  .00028915  00000-0  36380-3 0  9995
2 42706  51.6388 192.3470 0001350  64.2827 295.8305 15.59411601 22454
X-CUBESAT               
1 42707U 98067LQ  17281.15480047  .00028293  00000-0  35458-3 0  9990
2 42707  51.6378 192.3300 0001422  66.6332 293.4811 15.59527162 22448
QBEE50-LTU-OC           
1 42708U 98067LR  17281.15941051  .00028887  00000-0  36333-3 0  9990
2 42708  51.6377 192.3610 0001390  64.7004 295.4133 15.59421158 22404
ALTAIR PATHFINDER       
1 42711U 98067LS  17281.17330719  .00017947  00000-0  24319-3 0  9995
2 42711  51.6388 193.2024 0003098 330.8774  29.2045 15.57747776 22104
SHARC                   
1 42712U 98067LT  17281.17812004  .00017055  00000-0  23479-3 0  9994
2 42712  51.6396 193.2426 0001557 352.2747   7.8221 15.57364326 22346
ZA-AEROSAT              
1 42713U 98067LU  17281.13340348  .00022141  00000-0  28989-3 0  9991
2 42713  51.6389 192.9410 0000930 346.9636  13.1332 15.58516302 22100
LINK                    
1 42714U 98067LV  17281.21977302  .00033476  00000-0  40718-3 0  9994
2 42714  51.6377 192.0103 0000594  17.8435 342.2579 15.60224706 22235
CSUNSAT 1               
1 42715U 98067LW  17281.13761151  .00023358  00000-0  30334-3 0  9990
2 42715  51.6392 192.9650 0002808 317.4210  42.6564 15.58697080 22106
UPSAT                   
1 42716U 98067LX  17281.14114422  .00030830  00000-0  37729-3 0  9993
2 42716  51.6388 192.2416 0004297  52.1372 308.0009 15.60100779 22246
SPACECUBE               
1 42717U 98067LY  17281.17157816  .00028237  00000-0  35731-3 0  9990
2 42717  51.6386 192.4445 0004321  49.5139 310.6230 15.59266988 21481
HOOPOE                  
1 42718U 98067LZ  17281.15621118  .00029792  00000-0  37050-3 0  9993
2 42718  51.6384 192.3426 0004261  48.9036 311.2325 15.59695715 21486
CHALLENGER              
1 42721U 98067MA  17281.14143802  .00039420  00000-0  46661-3 0  9992
2 42721  51.6378 192.2346 0005914  23.9751 336.1517 15.60841090 21183
NJUST-1                 
1 42722U 98067MB  17281.22409281  .00019707  00000-0  26072-3 0  9998
2 42722  51.6389 192.7926 0006674  20.0676 340.0578 15.58302232 21181
UNSW-ECO                
1 42723U 98067MC  17281.12278639  .00029553  00000-0  37021-3 0  9995
2 42723  51.6389 192.8687 0006121  22.0836 338.0420 15.59497968 21156
DUTHSAT                 
1 42724U 98067MD  17281.02673531  .00038977  00000-0  46618-3 0  9997
2 42724  51.6388 192.9752 0005204  29.0404 331.0878 15.60579718 21065
LILACSAT-1              
1 42725U 98067ME  17281.15653356  .00026884  00000-0  34848-3 0  9991
2 42725  51.6390 193.0941 0005668  25.8691 334.2584 15.58649371 21077
NSIGHT-1                
1 42726U 98067MF  17281.14381848  .00012194  00000-0  17214-3 0  9992
2 42726  51.6399 193.7608 0006237  23.8338 336.2941 15.56993055 21071
SNUSAT-1                
1 42727U 98067MG  17281.02564392  .00023978  00000-0  31185-3 0  9992
2 42727  51.6379 193.7096 0006146 338.9089  21.1649 15.58627286 21025
QBITO                   
1 42728U 98067MH  17281.13307024  .00027114  00000-0  34543-3 0  9999
2 42728  51.6403 192.9448 0003422  45.1267 315.0004 15.59113618 20888
AALTO-2                 
1 42729U 98067MJ  17281.13295936  .00028248  00000-0  35941-3 0  9990
2 42729  51.6393 192.9381 0003355  45.0565 315.0700 15.59125234 20899
SUSAT                   
1 42730U 98067MK  17281.14072970  .00026580  00000-0  34149-3 0  9990
2 42730  51.6387 192.9870 0003355  41.0421 319.0824 15.58902571 20880
I-INSPIRE II            
1 42731U 98067ML  17281.17943208  .00031534  00000-0  39093-3 0  9993
2 42731  51.6377 192.4846 0004983 322.4299  37.6345 15.59744682 20941
POLYITAN-2-SAU          
1 42732U 98067MM  17281.12836927  .00028086  00000-0  35569-3 0  9990
2 42732  51.6381 192.8948 0005238 321.5406  38.5213 15.59243588 20930
SNUSAT-1B               
1 42733U 98067MN  17281.14062150  .00025848  00000-0  33191-3 0  9994
2 42733  51.6385 192.9785 0005371 324.9175  35.1463 15.58924501 20933
EXALTA-1                
1 42734U 98067MP  17281.11733223  .00031318  00000-0  39014-3 0  9997
2 42734  51.6378 192.8228 0006915 351.6692   8.4185 15.59608177 20880
AOXIANG-1               
1 42735U 98067MQ  17280.83530717  .00022117  00000-0  29087-3 0  9995
2 42735  51.6386 194.6941 0007136  14.5162 345.6034 15.58375991 22251
BEEAGLESAT              
1 42736U 98067MR  17281.15006505  .00025252  00000-0  32779-3 0  9990
2 42736  51.6383 193.0462 0006965  15.2963 344.8239 15.58640283 20992
ATLANTIS                
1 42737U 98067MS  17281.13128168  .00064098  00000-0  67899-3 0  9991
2 42737  51.6361 191.4089 0004817  23.2296 336.8916 15.63500266 20904
LEMUR-2-ANGELA          
1 42752U 17019B   17280.84078422  .00005114  00000-0  19720-3 0  9994
2 42752  51.6409 220.6043 0011009  28.0994 332.0578 15.27964817 18510
